{
    "links": {
        "self": "http://www.neowsapp.com/rest/v1/neo/54087784?api_key=iIulBulltgU6a56xZRHN4H3l9WmuAYTsLGpBGhQ2"
    },
    "id": "54087784",
    "neo_reference_id": "54087784",
    "name": "(2020 VH4)",
    "designation": "2020 VH4",
    "nasa_jpl_url": "http://ssd.jpl.nasa.gov/sbdb.cgi?sstr=54087784",
    "absolute_magnitude_h": 23.204,
    "estimated_diameter": {
        "kilometers": {
            "estimated_diameter_min": 0.0607791996,
            "estimated_diameter_max": 0.1359064219
        },
        "meters": {
            "estimated_diameter_min": 60.7791996056,
            "estimated_diameter_max": 135.9064219362
        },
        "miles": {
            "estimated_diameter_min": 0.037766432,
            "estimated_diameter_max": 0.0844483093
        },
        "feet": {
            "estimated_diameter_min": 199.406829234,
            "estimated_diameter_max": 445.887225345
        }
    },
    "is_potentially_hazardous_asteroid": false,
    "close_approach_data": [
        {
            "close_approach_date": "2020-12-08",
            "close_approach_date_full": "2020-Dec-08 16:57",
            "epoch_date_close_approach": 1607446620000,
            "relative_velocity": {
                "kilometers_per_second": "8.5997910093",
                "kilometers_per_hour": "30959.2476335273",
                "miles_per_hour": "19236.8725087325"
            },
            "miss_distance": {
                "astronomical": "0.2083758693",
                "lunar": "81.0582131577",
                "kilometers": "31172586.206678391",
                "miles": "19369746.8817321558"
            },
            "orbiting_body": "Earth"
        },
        {
            "close_approach_date": "2023-06-19",
            "close_approach_date_full": "2023-Jun-19 01:48",
            "epoch_date_close_approach": 1687139280000,
            "relative_velocity": {
                "kilometers_per_second": "18.1098803319",
                "kilometers_per_hour": "65195.5691948123",
                "miles_per_hour": "40509.9913144099"
            },
            "miss_distance": {
                "astronomical": "0.1392150825",
                "lunar": "54.1546670925",
                "kilometers": "20826279.813874275",
                "miles": "12940850.201143995"
            },
            "orbiting_body": "Venus"
        }
    ],
    "orbital_data": {
        "orbit_id": "5",
        "orbit_determination_date": "2020-11-24 05:23:40",
        "first_observation_date": "2020-11-12",
        "last_observation_date": "2020-11-21",
        "data_arc_in_days": 9,
        "observations_used": 30,
        "orbit_uncertainty": "8",
        "minimum_orbit_intersection": ".0340075",
        "jupiter_tisserand_invariant": "5.586",
        "epoch_osculation": "2459167.5",
        "eccentricity": ".4086360431705774",
        "semi_major_axis": "1.091752851308279",
        "inclination": "11.43092152674697",
        "ascending_node_longitude": "250.5411837234732",
        "orbital_period": "416.6629929377353",
        "perihelion_distance": ".6456232860294681",
        "perihelion_argument": "270.0838133546195",
        "aphelion_distance": "1.537882416587089",
        "perihelion_time": "2459249.333052543394",
        "mean_anomaly": "289.2956192055573",
        "mean_motion": ".8640076179114787",
        "equinox": "J2000",
        "orbit_class": {
            "orbit_class_type": "APO",
            "orbit_class_description": "Near-Earth asteroid orbits which cross the Earth’s orbit similar to that of 1862 Apollo",
            "orbit_class_range": "a (semi-major axis) > 1.0 AU; q (perihelion) < 1.017 AU"
        }
    },
    "is_sentry_object": false
}